ONEWEB-0350             
1 49214U 21083AE  24241.55485681 -.00000034  00000+0 -12943-3 0  9999
2 49214  87.8868  91.0938 0002088  86.4051 273.7316 13.13471515144604
ONEWEB-0352             
1 49216U 21083AG  24241.53579947 -.00000192  00000+0 -55955-3 0  9993
2 49216  87.8875  91.1296 0001660 101.6440 258.4875 13.13472080144696
ONEWEB-0357             
1 49219U 21083AK  24241.40946027  .00000114  00000+0  24938-3 0  9998
2 49219  87.9198  45.2849 0001794  99.0066 261.1270 13.20770698149985
ONEWEB-0332             
1 49279U 21090A   24241.56097482  .00000222  00000+0  56509-3 0  9990
2 49279  87.8924  60.5154 0001386  89.6193 270.5095 13.14502457141181
ONEWEB-0347             
1 49280U 21090B   24241.39998278  .00000117  00000+0  25562-3 0  9994
2 49280  87.9203  45.2875 0001215  88.6608 271.4665 13.20773510144212
